QIANFAN-9               
1 60387U 24140J   25323.57632777  .00000043  00000+0  48440-4 0  9994
2 60387  88.9739 301.7362 0014272 265.2298  94.7224 13.50977353 64205
QIANFAN-10              
1 60388U 24140K   25323.58051898  .00000030  00000+0  28689-4 0  9994
2 60388  88.9749 301.0805 0012856 239.1791 120.8096 13.50978105 64334
QIANFAN-11              
1 60389U 24140L   25323.61754914  .00000037  00000+0  38930-4 0  9995
2 60389  88.9675 301.6812 0012312 264.8094  95.1652 13.50974335 63999
QIANFAN-12              
1 60390U 24140M   25323.56399579  .00000040  00000+0  44119-4 0  9993
2 60390  88.9718 301.7201 0011171 274.6877  85.2998 13.50974905 64113
QIANFAN-13              
1 60391U 24140N   25323.60926699  .00000053  00000+0  64054-4 0  9992
2 60391  88.9730 301.8124 0011018 277.7335  82.2565 13.50975417 64145
QIANFAN-14              
1 60392U 24140P   25323.55978666  .00000039  00000+0  42542-4 0  9990
2 60392  88.9709 301.7201 0014700 277.1735  82.7745 13.50975130 64143
QIANFAN-15              
1 60393U 24140Q   25323.56805228  .00000056  00000+0  67532-4 0  9990
2 60393  88.9733 301.6703 0010425 261.5397  98.4573 13.50973771 64139
QIANFAN-16              
1 60394U 24140R   25323.55585860  .00000031  00000+0  29602-4 0  9996
2 60394  88.9736 301.7910 0012676 281.9876  77.9854 13.50974035 64040
